[{"OBJECT_NAME":"STARLINK-5337","OBJECT_ID":"2023-010R","EPOCH":"2026-03-09T23:31:30.169056","MEAN_MOTION":14.98429662,"ECCENTRICITY":0.00030856,"INCLINATION":70.0002,"RA_OF_ASC_NODE":43.5513,"ARG_OF_PERICENTER":267.612,"MEAN_ANOMALY":92.4686,"EPHEMERIS_TYPE":0,"CLASSIFICATION_TYPE":"U","NORAD_CAT_ID":55284,"ELEMENT_SET_NO":999,"REV_AT_EPOCH":17281,"BSTAR":0.0039719726,"MEAN_MOTION_DOT":0.00047747,"MEAN_MOTION_DDOT":0},{"OBJECT_NAME":"LEMUR-2-LUCILLE-ROSE","OBJECT_ID":"2025-135BV","EPOCH":"2026-03-09T20:33:39.744864","MEAN_MOTION":14.98437227,"ECCENTRICITY":0.00099823,"INCLINATION":97.7607,"RA_OF_ASC_NODE":185.354,"ARG_OF_PERICENTER":240.475,"MEAN_ANOMALY":119.5478,"EPHEMERIS_TYPE":0,"CLASSIFICATION_TYPE":"U","NORAD_CAT_ID":65403,"ELEMENT_SET_NO":999,"REV_AT_EPOCH":3375,"BSTAR":0.0012144011,"MEAN_MOTION_DOT":0.00014478,"MEAN_MOTION_DDOT":0}]
